0 ARIANE 44LP DEB
1 26810U 88109M   13281.33137693 -.00000135  00000-0  19409-2 0  7019
2 26810 006.4425 240.1665 7140762 116.4775 006.8935 02.16151517105266
0 ARIANE 44LP DEB
1 26810U 88109M   13288.26928670 -.00000177  00000-0  26684-2 0  7032
2 26810 006.4376 237.7664 7139844 121.1756 005.5372 02.16152403105416
0 ARIANE 44LP DEB
1 26810U 88109M   13290.53120831  .00000058  00000-0  34071-2 0  7056
2 26810 006.4352 237.0073 7140679 122.6793 325.6277 02.16152625105452
0 ARIANE 44LP DEB
1 26810U 88109M   13290.53125903 -.00000072  00000-0  00000+0 0  7049
2 26810 006.4352 237.0251 7141351 122.6575 325.6574 02.16150997105456
0 ARIANE 44LP DEB
1 26810U 88109M   13290.63936405 -.00000154  00000-0  73800-3 0  7040
2 26810 006.4361 236.9465 7139588 122.7792 049.7868 02.16153065105462
0 ARIANE 44LP DEB
1 26810U 88109M   13295.20432082 -.00000285  00000-0 -60172-2 0  7054
2 26810 006.4324 235.3718 7139039 125.8624 001.9637 02.16154733105562
